{
  "type": "FeatureCollection",
  "features": [
    {
      "type": "Feature",
      "properties": {
        "norad_id": 38486,
        "name": "COSMOS 2251 DEB",
        "group": "cosmos-2251-debris",
        "lat": -12.924819257681925,
        "lon": 16.409665841223273,
        "alt_km": 671.2766348073355,
        "timestamp": "2025-12-18T23:35:49.461453+00:00",
        "meta_object_name": "COSMOS 2251 DEB",
        "meta_object_id": "1993-036BTW",
        "meta_epoch": "2025-12-16T20:16:12.499104",
        "meta_mean_motion": 14.73366046,
        "meta_eccentricity": 0.00303976,
        "meta_inclination": 73.9413,
        "meta_ra_of_asc_node": 196.8105,
        "meta_arg_of_pericenter": 340.5168,
        "meta_mean_anomaly": 34.0397,
        "meta_ephemeris_type": 0,
        "meta_classification_type": "U",
        "meta_norad_cat_id": 38486,
        "meta_element_set_no": 999,
        "meta_rev_at_epoch": 75495,
        "meta_bstar": 0.0017008864,
        "meta_mean_motion_dot": 0.00011084,
        "meta_mean_motion_ddot": 0,
        "tle_line1": "1 38486U 93036BTW 25350.84458911  .00011084  00000+0  17009-2 0  9997",
        "tle_line2": "2 38486  73.9413 196.8105 0030397 340.5168  34.0397 14.73366046754953"
      },
      "geometry": {
        "type": "Point",
        "coordinates": [
          16.409665841223273,
          -12.924819257681925
        ]
      }
    },
    {
      "type": "Feature",
      "properties": {
        "norad_id": 38487,
        "name": "COSMOS 2251 DEB",
        "group": "cosmos-2251-debris",
        "lat": -59.94598120433332,
        "lon": -129.48114808393458,
        "alt_km": 510.33129034267677,
        "timestamp": "2025-12-18T23:35:49.461463+00:00",
        "meta_object_name": "COSMOS 2251 DEB",
        "meta_object_id": "1993-036BTX",
        "meta_epoch": "2025-12-18T08:17:15.140832",
        "meta_mean_motion": 15.17739234,
        "meta_eccentricity": 0.00209744,
        "meta_inclination": 73.9753,
        "meta_ra_of_asc_node": 22.0718,
        "meta_arg_of_pericenter": 194.1031,
        "meta_mean_anomaly": 165.9582,
        "meta_ephemeris_type": 0,
        "meta_classification_type": "U",
        "meta_norad_cat_id": 38487,
        "meta_element_set_no": 999,
        "meta_rev_at_epoch": 66885,
        "meta_bstar": 0.0016984027,
        "meta_mean_motion_dot": 0.00034604,
        "meta_mean_motion_ddot": 0,
        "tle_line1": "1 38487U 93036BTX 25352.34531413  .00034604  00000+0  16984-2 0  9998",
        "tle_line2": "2 38487  73.9753  22.0718 0020974 194.1031 165.9582 15.17739234668858"
      },
      "geometry": {
        "type": "Point",
        "coordinates": [
          -129.48114808393458,
          -59.94598120433332
        ]
      }
    },
    {
      "type": "Feature",
      "properties": {
        "norad_id": 39109,
        "name": "COSMOS 2251 DEB",
        "group": "cosmos-2251-debris",
        "lat": -12.543353814265053,
        "lon": 36.614761273164994,
        "alt_km": 684.7532363710125,
        "timestamp": "2025-12-18T23:35:49.461473+00:00",
        "meta_object_name": "COSMOS 2251 DEB",
        "meta_object_id": "1993-036BTY",
        "meta_epoch": "2025-12-16T09:28:20.054784",
        "meta_mean_motion": 14.70744531,
        "meta_eccentricity": 0.00594106,
        "meta_inclination": 74.0429,
        "meta_ra_of_asc_node": 217.9855,
        "meta_arg_of_pericenter": 320.6122,
        "meta_mean_anomaly": 213.0839,
        "meta_ephemeris_type": 0,
        "meta_classification_type": "U",
        "meta_norad_cat_id": 39109,
        "meta_element_set_no": 999,
        "meta_rev_at_epoch": 65227,
        "meta_bstar": 0.00033652687,
        "meta_mean_motion_dot": 2.076e-05,
        "meta_mean_motion_ddot": 0,
        "tle_line1": "1 39109U 93036BTY 25350.39467656  .00002076  00000+0  33653-3 0  9991",
        "tle_line2": "2 39109  74.0429 217.9855 0059410 320.6122 213.0839 14.70744531652276"
      },
      "geometry": {
        "type": "Point",
        "coordinates": [
          36.614761273164994,
          -12.543353814265053
        ]
      }
    },
    {
      "type": "Feature",
      "properties": {
        "norad_id": 39110,
        "name": "COSMOS 2251 DEB",
        "group": "cosmos-2251-debris",
        "lat": 48.879941560753046,
        "lon": 68.54942609091091,
        "alt_km": 693.5810594428831,
        "timestamp": "2025-12-18T23:35:49.461484+00:00",
        "meta_object_name": "COSMOS 2251 DEB",
        "meta_object_id": "1993-036BTZ",
        "meta_epoch": "2025-12-03T13:14:13.055136",
        "meta_mean_motion": 14.72215365,
        "meta_eccentricity": 0.00964609,
        "meta_inclination": 73.9598,
        "meta_ra_of_asc_node": 79.4668,
        "meta_arg_of_pericenter": 313.6965,
        "meta_mean_anomaly": 59.6182,
        "meta_ephemeris_type": 0,
        "meta_classification_type": "U",
        "meta_norad_cat_id": 39110,
        "meta_element_set_no": 999,
        "meta_rev_at_epoch": 62349,
        "meta_bstar": 0.00066560445,
        "meta_mean_motion_dot": 4.484e-05,
        "meta_mean_motion_ddot": 0,
        "tle_line1": "1 39110U 93036BTZ 25337.55153999  .00004484  00000+0  66560-3 0  9996",
        "tle_line2": "2 39110  73.9598  79.4668 0096460 313.6965  59.6182 14.72215365623496"
      },
      "geometry": {
        "type": "Point",
        "coordinates": [
          68.54942609091091,
          48.879941560753046
        ]
      }
    },
    {
      "type": "Feature",
      "properties": {
        "norad_id": 39111,
        "name": "COSMOS 2251 DEB",
        "group": "cosmos-2251-debris",
        "lat": -31.855838445412083,
        "lon": -141.58519208429348,
        "alt_km": 531.70749183928,
        "timestamp": "2025-12-18T23:35:49.461494+00:00",
        "meta_object_name": "COSMOS 2251 DEB",
        "meta_object_id": "1993-036BUA",
        "meta_epoch": "2025-12-01T22:58:55.551360",
        "meta_mean_motion": 15.11912111,
        "meta_eccentricity": 0.00109111,
        "meta_inclination": 74.0059,
        "meta_ra_of_asc_node": 63.5328,
        "meta_arg_of_pericenter": 39.1207,
        "meta_mean_anomaly": 321.0773,
        "meta_ephemeris_type": 0,
        "meta_classification_type": "U",
        "meta_norad_cat_id": 39111,
        "meta_element_set_no": 999,
        "meta_rev_at_epoch": 8982,
        "meta_bstar": 0.0056424119,
        "meta_mean_motion_dot": 0.00098096,
        "meta_mean_motion_ddot": 0,
        "tle_line1": "1 39111U 93036BUA 25335.95758740  .00098096  00000+0  56424-2 0  9993",
        "tle_line2": "2 39111  74.0059  63.5328 0010911  39.1207 321.0773 15.11912111 89826"
      },
      "geometry": {
        "type": "Point",
        "coordinates": [
          -141.58519208429348,
          -31.855838445412083
        ]
      }
    },
    {
      "type": "Feature",
      "properties": {
        "norad_id": 39546,
        "name": "COSMOS 2251 DEB",
        "group": "cosmos-2251-debris",
        "lat": -0.22801621699706753,
        "lon": -55.704438323065446,
        "alt_km": 600.5201483020574,
        "timestamp": "2025-12-18T23:35:49.461505+00:00",
        "meta_object_name": "COSMOS 2251 DEB",
        "meta_object_id": "1993-036BUC",
        "meta_epoch": "2025-12-16T03:12:27.285696",
        "meta_mean_motion": 14.92150087,
        "meta_eccentricity": 0.00441533,
        "meta_inclination": 73.9967,
        "meta_ra_of_asc_node": 129.9626,
        "meta_arg_of_pericenter": 289.5542,
        "meta_mean_anomaly": 70.0875,
        "meta_ephemeris_type": 0,
        "meta_classification_type": "U",
        "meta_norad_cat_id": 39546,
        "meta_element_set_no": 999,
        "meta_rev_at_epoch": 64487,
        "meta_bstar": 0.001062699,
        "meta_mean_motion_dot": 0.00010998,
        "meta_mean_motion_ddot": 0,
        "tle_line1": "1 39546U 93036BUC 25350.13364914  .00010998  00000+0  10627-2 0  9998",
        "tle_line2": "2 39546  73.9967 129.9626 0044153 289.5542  70.0875 14.92150087644870"
      },
      "geometry": {
        "type": "Point",
        "coordinates": [
          -55.704438323065446,
          -0.22801621699706753
        ]
      }
    },
    {
      "type": "Feature",
      "properties": {
        "norad_id": 39547,
        "name": "COSMOS 2251 DEB",
        "group": "cosmos-2251-debris",
        "lat": 61.2989669413444,
        "lon": 37.20071653276558,
        "alt_km": 547.4131483606843,
        "timestamp": "2025-12-18T23:35:49.461516+00:00",
        "meta_object_name": "COSMOS 2251 DEB",
        "meta_object_id": "1993-036BUD",
        "meta_epoch": "2025-12-16T19:23:25.702368",
        "meta_mean_motion": 15.03569393,
        "meta_eccentricity": 0.00056026,
        "meta_inclination": 74.0017,
        "meta_ra_of_asc_node": 10.0509,
        "meta_arg_of_pericenter": 8.7328,
        "meta_mean_anomaly": 167.2284,
        "meta_ephemeris_type": 0,
        "meta_classification_type": "U",
        "meta_norad_cat_id": 39547,
        "meta_element_set_no": 999,
        "meta_rev_at_epoch": 64086,
        "meta_bstar": 0.0020053812,
        "meta_mean_motion_dot": 0.00027477,
        "meta_mean_motion_ddot": 0,
        "tle_line1": "1 39547U 93036BUD 25350.80793637  .00027477  00000+0  20054-2 0  9996",
        "tle_line2": "2 39547  74.0017  10.0509 0005602   8.7328 167.2284 15.03569393640863"
      },
      "geometry": {
        "type": "Point",
        "coordinates": [
          37.20071653276558,
          61.2989669413444
        ]
      }
    }
  ]
}